ONEWEB-0565             
1 55146U 23004G   25269.39730436 -.00000002  00000+0 -36920-4 0  9996
2 55146  87.9196  27.9130 0002123 110.8237 249.3122 13.18686882134939
ONEWEB-0567             
1 55147U 23004H   25269.84596561  .00000043  00000+0  77123-4 0  9999
2 55147  87.9204  27.7847 0001854 111.8813 248.2516 13.18686680134991
ONEWEB-0569             
1 55148U 23004J   25269.73834654  .00000351  00000+0  92718-3 0  9994
2 55148  87.9053  12.5452 0001806 133.4563 226.6717 13.13472322135598
ONEWEB-0570             
1 55149U 23004K   25269.76019847  .00000047  00000+0  86113-4 0  9992
2 55149  87.9203  27.8021 0002303  99.4812 260.6581 13.18685059134974
ONEWEB-0571             
1 55150U 23004L   25269.75360525  .00000030  00000+0  43530-4 0  9993
2 55150  87.9197  27.8078 0002617 127.9390 232.1979 13.18688007134988
ONEWEB-0572             
1 55151U 23004M   25269.94489742  .00000044  00000+0  81220-4 0  9991
2 55151  87.9075  58.2204 0001781  99.2399 260.8934 13.17649610132819
ONEWEB-0573             
1 55152U 23004N   25269.74699844  .00000044  00000+0  78697-4 0  9990
2 55152  87.9196  27.8152 0002482 111.7434 248.3962 13.18684150134977
ONEWEB-0588             
1 55153U 23004P   25269.74039880  .00000063  00000+0  12736-3 0  9991
2 55153  87.9206  27.8043 0002240 101.5912 258.5471 13.18686106134970
ONEWEB-0598             
1 55154U 23004Q   25269.93639319 -.00000371  00000+0 -10814-2 0  9994
2 55154  87.8789  73.5170 0001691 114.7713 245.3591 13.11414766131393
ONEWEB-0599             
1 55155U 23004R   25269.67826699  .00000048  00000+0  89668-4 0  9999
2 55155  87.9073  58.2767 0001552 100.0672 260.0635 13.17649207132784
ONEWEB-0614             
1 55156U 23004S   25269.93130241 -.00000159  00000+0 -48368-3 0  9996
2 55156  87.8784  73.5277 0001946  86.0949 274.0402 13.11413351131336
ONEWEB-0616             
1 55157U 23004T   25269.94826640  .00000064  00000+0  13103-3 0  9995
2 55157  87.9072  58.2138 0000616  97.0477 263.0725 13.17647653133030
ONEWEB-0617             
1 55158U 23004U   25269.91945157  .00000329  00000+0  89257-3 0  9995
2 55158  87.8787  73.5087 0001986  91.7380 268.3975 13.11414510131357
ONEWEB-0618             
1 55159U 23004V   25269.52257080  .00002741  00000+0  29907-3 0  9990
2 55159  86.9031 284.2644 0014106 181.0382 179.0817 14.87501160142473
ONEWEB-0619             
1 55160U 23004W   25269.67658710  .00000026  00000+0  33912-4 0  9999
2 55160  87.9073  58.2425 0001654  77.1487 282.9829 13.17649146132894
ONEWEB-0620             
1 55161U 23004X   25269.91436651  .00000467  00000+0  12827-2 0  9994
2 55161  87.8784  73.5306 0001775  97.6436 262.4894 13.11415160131329
ONEWEB-0621             
1 55162U 23004Y   25269.94147600 -.00000462  00000+0 -13383-2 0  9996
2 55162  87.8799  73.4865 0001734  84.0645 276.0681 13.11415058131301
