[{"OBJECT_NAME":"ONEWEB-0565","OBJECT_ID":"2023-004G","EPOCH":"2025-09-26T09:32:07.096704","MEAN_MOTION":13.18686882,"ECCENTRICITY":0.00021238,"INCLINATION":87.9196,"RA_OF_ASC_NODE":27.913,"ARG_OF_PERICENTER":110.8237,"MEAN_ANOMALY":249.3122,"EPHEMERIS_TYPE":0,"CLASSIFICATION_TYPE":"U","NORAD_CAT_ID":55146,"ELEMENT_SET_NO":999,"REV_AT_EPOCH":13493,"BSTAR":-3.6919528e-5,"MEAN_MOTION_DOT":-2.0e-8,"MEAN_MOTION_DDOT":0},{"OBJECT_NAME":"ONEWEB-0567","OBJECT_ID":"2023-004H","EPOCH":"2025-09-26T20:18:11.428704","MEAN_MOTION":13.1868668,"ECCENTRICITY":0.00018547,"INCLINATION":87.9204,"RA_OF_ASC_NODE":27.7847,"ARG_OF_PERICENTER":111.8813,"MEAN_ANOMALY":248.2516,"EPHEMERIS_TYPE":0,"CLASSIFICATION_TYPE":"U","NORAD_CAT_ID":55147,"ELEMENT_SET_NO":999,"REV_AT_EPOCH":13499,"BSTAR":7.7122551e-5,"MEAN_MOTION_DOT":4.3e-7,"MEAN_MOTION_DDOT":0},{"OBJECT_NAME":"ONEWEB-0569","OBJECT_ID":"2023-004J","EPOCH":"2025-09-26T17:43:13.141056","MEAN_MOTION":13.13472322,"ECCENTRICITY":0.00018063,"INCLINATION":87.9053,"RA_OF_ASC_NODE":12.5452,"ARG_OF_PERICENTER":133.4563,"MEAN_ANOMALY":226.6717,"EPHEMERIS_TYPE":0,"CLASSIFICATION_TYPE":"U","NORAD_CAT_ID":55148,"ELEMENT_SET_NO":999,"REV_AT_EPOCH":13559,"BSTAR":0.00092718014,"MEAN_MOTION_DOT":3.51e-6,"MEAN_MOTION_DDOT":0},{"OBJECT_NAME":"ONEWEB-0570","OBJECT_ID":"2023-004K","EPOCH":"2025-09-26T18:14:41.147808","MEAN_MOTION":13.18685059,"ECCENTRICITY":0.00023039,"INCLINATION":87.9203,"RA_OF_ASC_NODE":27.8021,"ARG_OF_PERICENTER":99.4812,"MEAN_ANOMALY":260.6581,"EPHEMERIS_TYPE":0,"CLASSIFICATION_TYPE":"U","NORAD_CAT_ID":55149,"ELEMENT_SET_NO":999,"REV_AT_EPOCH":13497,"BSTAR":8.611303e-5,"MEAN_MOTION_DOT":4.7e-7,"MEAN_MOTION_DDOT":0},{"OBJECT_NAME":"ONEWEB-0571","OBJECT_ID":"2023-004L","EPOCH":"2025-09-26T18:05:11.493600","MEAN_MOTION":13.18688007,"ECCENTRICITY":0.00026172,"INCLINATION":87.9197,"RA_OF_ASC_NODE":27.8078,"ARG_OF_PERICENTER":127.939,"MEAN_ANOMALY":232.1979,"EPHEMERIS_TYPE":0,"CLASSIFICATION_TYPE":"U","NORAD_CAT_ID":55150,"ELEMENT_SET_NO":999,"REV_AT_EPOCH":13498,"BSTAR":4.3529831e-5,"MEAN_MOTION_DOT":3.0e-7,"MEAN_MOTION_DDOT":0},{"OBJECT_NAME":"ONEWEB-0572","OBJECT_ID":"2023-004M","EPOCH":"2025-09-26T22:40:39.137088","MEAN_MOTION":13.1764961,"ECCENTRICITY":0.00017816,"INCLINATION":87.9075,"RA_OF_ASC_NODE":58.2204,"ARG_OF_PERICENTER":99.2399,"MEAN_ANOMALY":260.8934,"EPHEMERIS_TYPE":0,"CLASSIFICATION_TYPE":"U","NORAD_CAT_ID":55151,"ELEMENT_SET_NO":999,"REV_AT_EPOCH":13281,"BSTAR":8.1220083e-5,"MEAN_MOTION_DOT":4.4e-7,"MEAN_MOTION_DDOT":0},{"OBJECT_NAME":"ONEWEB-0573","OBJECT_ID":"2023-004N","EPOCH":"2025-09-26T17:55:40.665216","MEAN_MOTION":13.1868415,"ECCENTRICITY":0.00024829,"INCLINATION":87.9196,"RA_OF_ASC_NODE":27.8152,"ARG_OF_PERICENTER":111.7434,"MEAN_ANOMALY":248.3962,"EPHEMERIS_TYPE":0,"CLASSIFICATION_TYPE":"U","NORAD_CAT_ID":55152,"ELEMENT_SET_NO":999,"REV_AT_EPOCH":13497,"BSTAR":7.8697144e-5,"MEAN_MOTION_DOT":4.4e-7,"MEAN_MOTION_DDOT":0},{"OBJECT_NAME":"ONEWEB-0588","OBJECT_ID":"2023-004P","EPOCH":"2025-09-26T17:46:10.456320","MEAN_MOTION":13.18686106,"ECCENTRICITY":0.000224,"INCLINATION":87.9206,"RA_OF_ASC_NODE":27.8043,"ARG_OF_PERICENTER":101.5912,"MEAN_ANOMALY":258.5471,"EPHEMERIS_TYPE":0,"CLASSIFICATION_TYPE":"U","NORAD_CAT_ID":55153,"ELEMENT_SET_NO":999,"REV_AT_EPOCH":13497,"BSTAR":0.00012735955,"MEAN_MOTION_DOT":6.3e-7,"MEAN_MOTION_DDOT":0},{"OBJECT_NAME":"ONEWEB-0598","OBJECT_ID":"2023-004Q","EPOCH":"2025-09-26T22:28:24.371616","MEAN_MOTION":13.11414766,"ECCENTRICITY":0.00016915,"INCLINATION":87.8789,"RA_OF_ASC_NODE":73.517,"ARG_OF_PERICENTER":114.7713,"MEAN_ANOMALY":245.3591,"EPHEMERIS_TYPE":0,"CLASSIFICATION_TYPE":"U","NORAD_CAT_ID":55154,"ELEMENT_SET_NO":999,"REV_AT_EPOCH":13139,"BSTAR":-0.0010814362,"MEAN_MOTION_DOT":-3.71e-6,"MEAN_MOTION_DDOT":0},{"OBJECT_NAME":"ONEWEB-0599","OBJECT_ID":"2023-004R","EPOCH":"2025-09-26T16:16:42.267936","MEAN_MOTION":13.17649207,"ECCENTRICITY":0.00015524,"INCLINATION":87.9073,"RA_OF_ASC_NODE":58.2767,"ARG_OF_PERICENTER":100.0672,"MEAN_ANOMALY":260.0635,"EPHEMERIS_TYPE":0,"CLASSIFICATION_TYPE":"U","NORAD_CAT_ID":55155,"ELEMENT_SET_NO":999,"REV_AT_EPOCH":13278,"BSTAR":8.9667518e-5,"MEAN_MOTION_DOT":4.8e-7,"MEAN_MOTION_DDOT":0},{"OBJECT_NAME":"ONEWEB-0614","OBJECT_ID":"2023-004S","EPOCH":"2025-09-26T22:21:04.528224","MEAN_MOTION":13.11413351,"ECCENTRICITY":0.00019467,"INCLINATION":87.8784,"RA_OF_ASC_NODE":73.5277,"ARG_OF_PERICENTER":86.0949,"MEAN_ANOMALY":274.0402,"EPHEMERIS_TYPE":0,"CLASSIFICATION_TYPE":"U","NORAD_CAT_ID":55156,"ELEMENT_SET_NO":999,"REV_AT_EPOCH":13133,"BSTAR":-0.0004836765,"MEAN_MOTION_DOT":-1.59e-6,"MEAN_MOTION_DDOT":0},{"OBJECT_NAME":"ONEWEB-0616","OBJECT_ID":"2023-004T","EPOCH":"2025-09-26T22:45:30.216960","MEAN_MOTION":13.17647653,"ECCENTRICITY":6.168e-5,"INCLINATION":87.9072,"RA_OF_ASC_NODE":58.2138,"ARG_OF_PERICENTER":97.0477,"MEAN_ANOMALY":263.0725,"EPHEMERIS_TYPE":0,"CLASSIFICATION_TYPE":"U","NORAD_CAT_ID":55157,"ELEMENT_SET_NO":999,"REV_AT_EPOCH":13303,"BSTAR":0.00013102511,"MEAN_MOTION_DOT":6.4e-7,"MEAN_MOTION_DDOT":0},{"OBJECT_NAME":"ONEWEB-0617","OBJECT_ID":"2023-004U","EPOCH":"2025-09-26T22:04:00.615648","MEAN_MOTION":13.1141451,"ECCENTRICITY":0.00019861,"INCLINATION":87.8787,"RA_OF_ASC_NODE":73.5087,"ARG_OF_PERICENTER":91.738,"MEAN_ANOMALY":268.3975,"EPHEMERIS_TYPE":0,"CLASSIFICATION_TYPE":"U","NORAD_CAT_ID":55158,"ELEMENT_SET_NO":999,"REV_AT_EPOCH":13135,"BSTAR":0.00089257445,"MEAN_MOTION_DOT":3.29e-6,"MEAN_MOTION_DDOT":0},{"OBJECT_NAME":"ONEWEB-0618","OBJECT_ID":"2023-004V","EPOCH":"2025-09-26T12:32:30.117120","MEAN_MOTION":14.8750116,"ECCENTRICITY":0.00141065,"INCLINATION":86.9031,"RA_OF_ASC_NODE":284.2644,"ARG_OF_PERICENTER":181.0382,"MEAN_ANOMALY":179.0817,"EPHEMERIS_TYPE":0,"CLASSIFICATION_TYPE":"U","NORAD_CAT_ID":55159,"ELEMENT_SET_NO":999,"REV_AT_EPOCH":14247,"BSTAR":0.00029906964,"MEAN_MOTION_DOT":2.741e-5,"MEAN_MOTION_DDOT":0},{"OBJECT_NAME":"ONEWEB-0619","OBJECT_ID":"2023-004W","EPOCH":"2025-09-26T16:14:17.125440","MEAN_MOTION":13.17649146,"ECCENTRICITY":0.00016549,"INCLINATION":87.9073,"RA_OF_ASC_NODE":58.2425,"ARG_OF_PERICENTER":77.1487,"MEAN_ANOMALY":282.9829,"EPHEMERIS_TYPE":0,"CLASSIFICATION_TYPE":"U","NORAD_CAT_ID":55160,"ELEMENT_SET_NO":999,"REV_AT_EPOCH":13289,"BSTAR":3.3911723e-5,"MEAN_MOTION_DOT":2.6e-7,"MEAN_MOTION_DDOT":0},{"OBJECT_NAME":"ONEWEB-0620","OBJECT_ID":"2023-004X","EPOCH":"2025-09-26T21:56:41.266464","MEAN_MOTION":13.1141516,"ECCENTRICITY":0.00017752,"INCLINATION":87.8784,"RA_OF_ASC_NODE":73.5306,"ARG_OF_PERICENTER":97.6436,"MEAN_ANOMALY":262.4894,"EPHEMERIS_TYPE":0,"CLASSIFICATION_TYPE":"U","NORAD_CAT_ID":55161,"ELEMENT_SET_NO":999,"REV_AT_EPOCH":13132,"BSTAR":0.0012826704,"MEAN_MOTION_DOT":4.67e-6,"MEAN_MOTION_DDOT":0},{"OBJECT_NAME":"ONEWEB-0621","OBJECT_ID":"2023-004Y","EPOCH":"2025-09-26T22:35:43.526400","MEAN_MOTION":13.11415058,"ECCENTRICITY":0.00017344,"INCLINATION":87.8799,"RA_OF_ASC_NODE":73.4865,"ARG_OF_PERICENTER":84.0645,"MEAN_ANOMALY":276.0681,"EPHEMERIS_TYPE":0,"CLASSIFICATION_TYPE":"U","NORAD_CAT_ID":55162,"ELEMENT_SET_NO":999,"REV_AT_EPOCH":13130,"BSTAR":-0.0013383275,"MEAN_MOTION_DOT":-4.62e-6,"MEAN_MOTION_DDOT":0}]
